GLOBALSTAR M045         
1 25676U 99019A   25296.95720640 -.00000080  00000+0  12109-3 0  9995
2 25676  51.9972 298.2466 0000443  83.7312 292.7056 12.27066587209201
GLOBALSTAR M019         
1 25677U 99019B   25296.82260537 -.00000009  00000+0  84192-3 0  9998
2 25677  51.9869  78.0440 0001163 178.8318 328.7592 12.13876875200766
GLOBALSTAR M044         
1 25678U 99019C   25296.57152970 -.00000116  00000+0 -44687-3 0  9997
2 25678  51.9991  46.1639 0005538 285.8638  87.2828 11.90260310186614
GLOBALSTAR M042         
1 25679U 99019D   25296.82384641 -.00000057  00000+0  32631-3 0  9997
2 25679  52.0029  47.8044 0003137 190.4895 338.3817 12.22089751200985
GLOBALSTAR M025         
1 25770U 99031A   25296.98038398 -.00000073  00000+0 -16227-3 0  9997
2 25770  51.9806 220.9121 0002708  11.8716  69.3872 11.22557645496170
GLOBALSTAR M049         
1 25771U 99031B   25296.60988211 -.00000033  00000+0  11016-2 0  9990
2 25771  51.9868 262.9887 0002469 238.9519 121.1035 11.12120847131714
GLOBALSTAR M047         
1 25772U 99031C   25296.90177729 -.00000063  00000+0  17102-3 0  9994
2 25772  51.9823 246.9979 0016441 121.7355 238.5055 11.31930421485683
GLOBALSTAR M052         
1 25773U 99031D   25296.98443619 -.00000071  00000+0 -16529-3 0  9999
2 25773  51.9908   9.0006 0002508  35.4903 136.2062 11.15060864492874
